{"type": "FeatureCollection", "features": [ {"type": "Feature", "properties": {"norad_id": 33492, "name": "GOSAT (IBUKI)", "group": "resource", "lat": -4.241165589967607, "lon": 109.18009695044852, "alt_km": 672.6630327720113, "timestamp": "2025-12-26T03:50:11.744440+00:00", "meta": {"OBJECT_NAME": "GOSAT (IBUKI)", "OBJECT_ID": "2009-002A", "EPOCH": "2025-12-25T19:40:27.371136", "MEAN_MOTION": 14.67549933, "ECCENTRICITY": 0.0001031, "INCLINATION": 98.0771, "RA_OF_ASC_NODE": 108.2414, "ARG_OF_PERICENTER": 105.3017, "MEAN_ANOMALY": 254.8301, "EPHEMERIS_TYPE": 0, "CLASSIFICATION_TYPE": "U", "NORAD_CAT_ID": 33492, "ELEMENT_SET_NO": 999, "REV_AT_EPOCH": 90603, "BSTAR": 0.00017176, "MEAN_MOTION_DOT": 9.26e-06, "MEAN_MOTION_DDOT": 0}, "tle": {"line1": "1 33492U 09002A   25359.81976124  .00000926  00000+0  17176-3 0  9995", "line2": "2 33492  98.0771 108.2414 0001031 105.3017 254.8301 14.67549933906039"}}, "geometry": {"type": "Point", "coordinates": [109.18009695044852, -4.241165589967607]}}, {"type": "Feature", "properties": {"norad_id": 35681, "name": "DEIMOS-1", "group": "resource", "lat": 69.65973064270187, "lon": 138.6870025065165, "alt_km": 636.8156274448329, "timestamp": "2025-12-26T03:50:11.744451+00:00", "meta": {"OBJECT_NAME": "DEIMOS-1", "OBJECT_ID": "2009-041A", "EPOCH": "2025-12-25T21:00:10.381824", "MEAN_MOTION": 14.74971139, "ECCENTRICITY": 0.0002449, "INCLINATION": 97.7158, "RA_OF_ASC_NODE": 159.8676, "ARG_OF_PERICENTER": 59.4812, "MEAN_ANOMALY": 300.6639, "EPHEMERIS_TYPE": 0, "CLASSIFICATION_TYPE": "U", "NORAD_CAT_ID": 35681, "ELEMENT_SET_NO": 999, "REV_AT_EPOCH": 88133, "BSTAR": 9.1256e-05, "MEAN_MOTION_DOT": 5.66e-06, "MEAN_MOTION_DDOT": 0}, "tle": {"line1": "1 35681U 09041A   25359.87512016  .00000566  00000+0  91256-4 0  9994", "line2": "2 35681  97.7158 159.8676 0002449  59.4812 300.6639 14.74971139881338"}}, "geometry": {"type": "Point", "coordinates": [138.6870025065165, 69.65973064270187]}}, {"type": "Feature", "properties": {"norad_id": 35682, "name": "DUBAISAT-1", "group": "resource", "lat": -10.02156930471362, "lon": 132.0630113568478, "alt_km": 649.7866533644437, "timestamp": "2025-12-26T03:50:11.744462+00:00", "meta": {"OBJECT_NAME": "DUBAISAT-1", "OBJECT_ID": "2009-041B", "EPOCH": "2025-12-25T14:51:15.709248", "MEAN_MOTION": 14.7463875, "ECCENTRICITY": 0.0009257, "INCLINATION": 97.9798, "RA_OF_ASC_NODE": 130.1097, "ARG_OF_PERICENTER": 268.0894, "MEAN_ANOMALY": 91.9254, "EPHEMERIS_TYPE": 0, "CLASSIFICATION_TYPE": "U", "NORAD_CAT_ID": 35682, "ELEMENT_SET_NO": 999, "REV_AT_EPOCH": 87951, "BSTAR": 0.00021668, "MEAN_MOTION_DOT": 1.396e-05, "MEAN_MOTION_DDOT": 0}, "tle": {"line1": "1 35682U 09041B   25359.61893182  .00001396  00000+0  21668-3 0  9994", "line2": "2 35682  97.9798 130.1097 0009257 268.0894  91.9254 14.74638750879511"}}, "geometry": {"type": "Point", "coordinates": [132.0630113568478, -10.02156930471362]}}, {"type": "Feature", "properties": {"norad_id": 35931, "name": "OCEANSAT-2", "group": "resource", "lat": 30.19646071905187, "lon": -175.77505237741482, "alt_km": 902.2724645327089, "timestamp": "2025-12-26T03:50:11.744473+00:00", "meta": {"OBJECT_NAME": "OCEANSAT-2", "OBJECT_ID": "2009-051A", "EPOCH": "2025-12-25T21:58:44.069376", "MEAN_MOTION": 13.99622975, "ECCENTRICITY": 0.0015879, "INCLINATION": 98.2218, "RA_OF_ASC_NODE": 359.1793, "ARG_OF_PERICENTER": 10.3883, "MEAN_ANOMALY": 349.7609, "EPHEMERIS_TYPE": 0, "CLASSIFICATION_TYPE": "U", "NORAD_CAT_ID": 35931, "ELEMENT_SET_NO": 999, "REV_AT_EPOCH": 85509, "BSTAR": 2.89e-05, "MEAN_MOTION_DOT": 5e-08, "MEAN_MOTION_DDOT": 0}, "tle": {"line1": "1 35931U 09051A   25359.91578784  .00000005  00000+0  28900-4 0  9996", "line2": "2 35931  98.2218 359.1793 0015879  10.3883 349.7609 13.99622975855091"}}, "geometry": {"type": "Point", "coordinates": [-175.77505237741482, 30.19646071905187]}}, {"type": "Feature", "properties": {"norad_id": 35946, "name": "WORLDVIEW-2 (WV-2)", "group": "resource", "lat": -50.15267092391435, "lon": 81.35428819900235, "alt_km": 772.7736365381561, "timestamp": "2025-12-26T03:50:11.744484+00:00", "meta": {"OBJECT_NAME": "WORLDVIEW-2 (WV-2)", "OBJECT_ID": "2009-055A", "EPOCH": "2025-12-25T19:43:17.793408", "MEAN_MOTION": 14.3772974, "ECCENTRICITY": 0.000468, "INCLINATION": 98.4772, "RA_OF_ASC_NODE": 70.7266, "ARG_OF_PERICENTER": 38.2577, "MEAN_ANOMALY": 321.8942, "EPHEMERIS_TYPE": 0, "CLASSIFICATION_TYPE": "U", "NORAD_CAT_ID": 35946, "ELEMENT_SET_NO": 999, "REV_AT_EPOCH": 85073, "BSTAR": 7.4039e-05, "MEAN_MOTION_DOT": 1.79e-06, "MEAN_MOTION_DDOT": 0}, "tle": {"line1": "1 35946U 09055A   25359.82173372  .00000179  00000+0  74039-4 0  9996", "line2": "2 35946  98.4772  70.7266 0004680  38.2577 321.8942 14.37729740850730"}}, "geometry": {"type": "Point", "coordinates": [81.35428819900235, -50.15267092391435]}}, {"type": "Feature", "properties": {"norad_id": 36036, "name": "SMOS", "group": "resource", "lat": 78.45542424240966, "lon": 138.3959927114947, "alt_km": 751.2294782101781, "timestamp": "2025-12-26T03:50:11.744495+00:00", "meta": {"OBJECT_NAME": "SMOS", "OBJECT_ID": "2009-059A", "EPOCH": "2025-12-25T12:26:43.814688", "MEAN_MOTION": 14.39752409, "ECCENTRICITY": 0.0001048, "INCLINATION": 98.4382, "RA_OF_ASC_NODE": 184.3778, "ARG_OF_PERICENTER": 83.5016, "MEAN_ANOMALY": 276.6292, "EPHEMERIS_TYPE": 0, "CLASSIFICATION_TYPE": "U", "NORAD_CAT_ID": 36036, "ELEMENT_SET_NO": 999, "REV_AT_EPOCH": 84846, "BSTAR": 0.00014069, "MEAN_MOTION_DOT": 3.97e-06, "MEAN_MOTION_DDOT": 0}, "tle": {"line1": "1 36036U 09059A   25359.51856267  .00000397  00000+0  14069-3 0  9996", "line2": "2 36036  98.4382 184.3778 0001048  83.5016 276.6292 14.39752409848466"}}, "geometry": {"type": "Point", "coordinates": [138.3959927114947, 78.45542424240966]}}, {"type": "Feature", "properties": {"norad_id": 36110, "name": "YAOGAN-7", "group": "resource", "lat": -59.16570509040371, "lon": -104.4533421821434, "alt_km": 636.3815616127213, "timestamp": "2025-12-26T03:50:11.744505+00:00", "meta": {"OBJECT_NAME": "YAOGAN-7", "OBJECT_ID": "2009-069A", "EPOCH": "2025-12-25T15:06:27.948096", "MEAN_MOTION": 14.77750828, "ECCENTRICITY": 0.0023473, "INCLINATION": 98.0293, "RA_OF_ASC_NODE": 241.34, "ARG_OF_PERICENTER": 237.3652, "MEAN_ANOMALY": 122.5293, "EPHEMERIS_TYPE": 0, "CLASSIFICATION_TYPE": "U", "NORAD_CAT_ID": 36110, "ELEMENT_SET_NO": 999, "REV_AT_EPOCH": 86399, "BSTAR": 0.00010215, "MEAN_MOTION_DOT": 6.82e-06, "MEAN_MOTION_DDOT": 0}, "tle": {"line1": "1 36110U 09069A   25359.62949014  .00000682  00000+0  10215-3 0  9991", "line2": "2 36110  98.0293 241.3400 0023473 237.3652 122.5293 14.77750828863993"}}, "geometry": {"type": "Point", "coordinates": [-104.4533421821434, -59.16570509040371]}}, {"type": "Feature", "properties": {"norad_id": 36605, "name": "TANDEM-X", "group": "resource", "lat": 22.10839741149605, "lon": 2.2987240639477857, "alt_km": 507.76761709301627, "timestamp": "2025-12-26T03:50:11.744517+00:00", "meta": {"OBJECT_NAME": "TANDEM-X", "OBJECT_ID": "2010-030A", "EPOCH": "2025-12-25T13:30:40.340160", "MEAN_MOTION": 15.19154497, "ECCENTRICITY": 0.0001775, "INCLINATION": 97.4454, "RA_OF_ASC_NODE": 4.7557, "ARG_OF_PERICENTER": 93.2666, "MEAN_ANOMALY": 266.8771, "EPHEMERIS_TYPE": 0, "CLASSIFICATION_TYPE": "U", "NORAD_CAT_ID": 36605, "ELEMENT_SET_NO": 999, "REV_AT_EPOCH": 86028, "BSTAR": 5.683e-05, "MEAN_MOTION_DOT": 1.127e-05, "MEAN_MOTION_DDOT": 0}, "tle": {"line1": "1 36605U 10030A   25359.56296690  .00001127  00000+0  56830-4 0  9997", "line2": "2 36605  97.4454   4.7557 0001775  93.2666 266.8771 15.19154497860282"}}, "geometry": {"type": "Point", "coordinates": [2.2987240639477857, 22.10839741149605]}}, {"type": "Feature", "properties": {"norad_id": 36795, "name": "CARTOSAT-2B", "group": "resource", "lat": -80.98015089830673, "lon": 108.25211320485998, "alt_km": 645.3237703004279, "timestamp": "2025-12-26T03:50:11.744527+00:00", "meta": {"OBJECT_NAME": "CARTOSAT-2B", "OBJECT_ID": "2010-035A", "EPOCH": "2025-12-25T20:06:08.654688", "MEAN_MOTION": 14.7874398, "ECCENTRICITY": 0.0012529, "INCLINATION": 97.7831, "RA_OF_ASC_NODE": 48.4406, "ARG_OF_PERICENTER": 37.8432, "MEAN_ANOMALY": 322.3658, "EPHEMERIS_TYPE": 0, "CLASSIFICATION_TYPE": "U", "NORAD_CAT_ID": 36795, "ELEMENT_SET_NO": 999, "REV_AT_EPOCH": 83423, "BSTAR": 0.0001298, "MEAN_MOTION_DOT": 9.04e-06, "MEAN_MOTION_DDOT": 0}, "tle": {"line1": "1 36795U 10035A   25359.83760017  .00000904  00000+0  12980-3 0  9990", "line2": "2 36795  97.7831  48.4406 0012529  37.8432 322.3658 14.78743980834239"}}, "geometry": {"type": "Point", "coordinates": [108.25211320485998, -80.98015089830673]}}, {"type": "Feature", "properties": {"norad_id": 36834, "name": "YAOGAN-10", "group": "resource", "lat": -77.63109859497757, "lon": 59.24585434875212, "alt_km": 622.908766195148, "timestamp": "2025-12-26T03:50:11.744538+00:00", "meta": {"OBJECT_NAME": "YAOGAN-10", "OBJECT_ID": "2010-038A", "EPOCH": "2025-12-25T20:34:10.491168", "MEAN_MOTION": 14.84655937, "ECCENTRICITY": 0.0001398, "INCLINATION": 97.9134, "RA_OF_ASC_NODE": 19.579, "ARG_OF_PERICENTER": 78.5502, "MEAN_ANOMALY": 23.6466, "EPHEMERIS_TYPE": 0, "CLASSIFICATION_TYPE": "U", "NORAD_CAT_ID": 36834, "ELEMENT_SET_NO": 999, "REV_AT_EPOCH": 83148, "BSTAR": 0.0001776, "MEAN_MOTION_DOT": 1.448e-05, "MEAN_MOTION_DDOT": 0}, "tle": {"line1": "1 36834U 10038A   25359.85706587  .00001448  00000+0  17760-3 0  9996", "line2": "2 36834  97.9134  19.5790 0001398  78.5502  23.6466 14.84655937831481"}}, "geometry": {"type": "Point", "coordinates": [59.24585434875212, -77.63109859497757]}}]}